ORBCOMM FM24            
1 25478U 98053D   24207.46251172  .00002400  00000+0  86662-3 0  9990
2 25478  45.0092  16.0058 0000471  95.3012 264.7890 14.35997974350721
ORBCOMM FM25            
1 25479U 98053E   24207.77769792  .00002028  00000+0  74010-3 0  9997
2 25479  45.0086  12.7664 0002859  65.9810 294.1337 14.35984465350782
ORBCOMM FM26            
1 25480U 98053F   24206.91021497  .00002136  00000+0  78614-3 0  9991
2 25480  45.0080  11.3155 0005207  78.4085 281.7347 14.35374980350598
ORBCOMM FM27            
1 25481U 98053G   24206.93159895  .00002728  00000+0  97884-3 0  9995
2 25481  45.0069  17.0254 0001410 187.1243 172.9584 14.35969072350591
ORBCOMM FM28            
1 25482U 98053H   24207.79998952  .00001543  00000+0  57007-3 0  9993
2 25482  45.0064 311.1429 0002951 134.9966 225.1121 14.36384897351565
ORBCOMM FM30            
1 25980U 99065A   24207.21301115  .00001867  00000+0  69184-3 0  9994
2 25980  45.0303 195.4902 0004859 189.7800 170.2954 14.35503872287430
ORBCOMM FM31            
1 25981U 99065B   24207.24839482  .00001790  00000+0  66545-3 0  9994
2 25981  45.0218 188.9635 0003279 233.1987 126.8560 14.35494731286994
ORBCOMM FM32            
1 25982U 99065C   24207.42193027  .00001997  00000+0  75129-3 0  9990
2 25982  45.0139 202.4872 0005589 221.6937 138.3484 14.34503821287775
